[{"OBJECT_NAME":"STARLINK-33605","OBJECT_ID":"2025-035Y","EPOCH":"2026-03-09T05:51:02.817504","MEAN_MOTION":15.27582744,"ECCENTRICITY":6.831e-5,"INCLINATION":42.9982,"RA_OF_ASC_NODE":149.4092,"ARG_OF_PERICENTER":213.614,"MEAN_ANOMALY":146.4668,"EPHEMERIS_TYPE":0,"CLASSIFICATION_TYPE":"U","NORAD_CAT_ID":63074,"ELEMENT_SET_NO":999,"REV_AT_EPOCH":5965,"BSTAR":0.0011758973,"MEAN_MOTION_DOT":0.0003224,"MEAN_MOTION_DDOT":0},{"OBJECT_NAME":"FENGYUN 1C DEB","OBJECT_ID":"1999-025CUZ","EPOCH":"2026-03-07T03:33:19.659744","MEAN_MOTION":15.49361115,"ECCENTRICITY":0.0121693,"INCLINATION":97.0067,"RA_OF_ASC_NODE":319.8074,"ARG_OF_PERICENTER":141.5541,"MEAN_ANOMALY":219.4462,"EPHEMERIS_TYPE":0,"CLASSIFICATION_TYPE":"U","NORAD_CAT_ID":32203,"ELEMENT_SET_NO":999,"REV_AT_EPOCH":76401,"BSTAR":0.00044112138,"MEAN_MOTION_DOT":0.00032745,"MEAN_MOTION_DDOT":0}]
